INSAT-3D                
1 39216U 13038B   26167.78177463 -.00000343  00000+0  00000+0 0  9990
2 39216   1.9255  82.5442 0000560 311.3198 282.1305  1.00269313 47071
ICEYE-X7                
1 46496U 20068L   26168.20699534  .00010032  00000+0  33198-3 0  9998
2 46496  97.7499 134.7345 0006444 343.4519  16.6510 15.31525280314795
ICEYE-X71               
1 68494U 26067CG  26167.86039910  .00001700  00000+0  17465-3 0  9993
2 68494  97.7612 126.1010 0003372  52.8567 307.2959 14.91666489 11678
ICEYE-X73               
1 68496U 26067CJ  26168.16686150  .00002536  00000+0  25425-3 0  9996
2 68496  97.7610 126.4659 0001215  21.5060 338.6210 14.92222398 11727
ICEYE-X75               
1 68497U 26067CK  26168.16870557  .00001137  00000+0  11736-3 0  9999
2 68497  97.7591 126.4466 0001068  22.7286 337.3980 14.92120556 11724
ICEYE-X74               
1 68500U 26067CN  26168.19494580  .00001519  00000+0  15661-3 0  9990
2 68500  97.7618 126.4384 0003226  49.5151 310.6348 14.91668225 11725
ICEYE-X76               
1 68502U 26067CQ  26167.85529478  .00000843  00000+0  89381-4 0  9999
2 68502  97.7625 126.1192 0002946  44.6381 315.5075 14.91698738 11675
ICEYE-X72               
1 68504U 26067CS  26167.63824428  .00002555  00000+0  25679-3 0  9991
2 68504  97.7625 125.9421 0002228  29.8896 330.2450 14.92126347 11649
ICEYE-X78               
1 68995U 26100R   26167.67303808  .00002186  00000+0  22236-3 0  9997
2 68995  97.7369  65.1389 0003803 112.0256 248.1367 14.91768747  6622
ICEYE-X82               
1 68996U 26100S   26167.95525032  .00001712  00000+0  17735-3 0  9996
2 68996  97.7363  65.3810 0005168 131.8479 228.3181 14.91302547  6660
