{
 "generated_at": "2026-06-17T09:51:32Z",
 "sources": [
  {
   "name": "CelesTrak",
   "url": "https://celestrak.org/NORAD/elements/",
   "license": "frei verfügbar; Attribution. Ursprünglich USSPACECOM/Space-Track."
  },
  {
   "name": "GCAT (J. McDowell, planet4589.org)",
   "url": "https://planet4589.org/space/gcat/",
   "license": "CC-BY 4.0"
  }
 ],
 "satellites": [
  {
   "norad": 46496,
   "name": "ICEYE-X7",
   "intl": "2020-068L",
   "group": "sar",
   "gcat": {
    "class": "B",
    "category": "IMG-R",
    "owner": "ICEYE",
    "state": "FI"
   },
   "omm": {
    "OBJECT_NAME": "ICEYE-X7",
    "OBJECT_ID": "2020-068L",
    "EPOCH": "2026-06-17T04:58:04.397376",
    "MEAN_MOTION": 15.3152528,
    "ECCENTRICITY": 0.0006444,
    "INCLINATION": 97.7499,
    "RA_OF_ASC_NODE": 134.7345,
    "ARG_OF_PERICENTER": 343.4519,
    "MEAN_ANOMALY": 16.651,
    "EPHEMERIS_TYPE": 0,
    "CLASSIFICATION_TYPE": "U",
    "NORAD_CAT_ID": 46496,
    "ELEMENT_SET_NO": 999,
    "REV_AT_EPOCH": 31479,
    "BSTAR": 0.00033198,
    "MEAN_MOTION_DOT": 0.00010032,
    "MEAN_MOTION_DDOT": 0
   }
  },
  {
   "norad": 68494,
   "name": "ICEYE-X71",
   "intl": "2026-067CG",
   "group": "sar",
   "gcat": {
    "class": "B",
    "category": "IMG-R",
    "owner": "ICEYE",
    "state": "FI"
   },
   "omm": {
    "OBJECT_NAME": "ICEYE-X71",
    "OBJECT_ID": "2026-067CG",
    "EPOCH": "2026-06-16T20:38:58.482240",
    "MEAN_MOTION": 14.91666489,
    "ECCENTRICITY": 0.0003372,
    "INCLINATION": 97.7612,
    "RA_OF_ASC_NODE": 126.101,
    "ARG_OF_PERICENTER": 52.8567,
    "MEAN_ANOMALY": 307.2959,
    "EPHEMERIS_TYPE": 0,
    "CLASSIFICATION_TYPE": "U",
    "NORAD_CAT_ID": 68494,
    "ELEMENT_SET_NO": 999,
    "REV_AT_EPOCH": 1167,
    "BSTAR": 0.00017465,
    "MEAN_MOTION_DOT": 0.000017,
    "MEAN_MOTION_DDOT": 0
   }
  },
  {
   "norad": 68504,
   "name": "ICEYE-X72",
   "intl": "2026-067CS",
   "group": "sar",
   "gcat": {
    "class": "B",
    "category": "IMG-R",
    "owner": "ICEYE",
    "state": "FI"
   },
   "omm": {
    "OBJECT_NAME": "ICEYE-X72",
    "OBJECT_ID": "2026-067CS",
    "EPOCH": "2026-06-16T15:19:04.305792",
    "MEAN_MOTION": 14.92126347,
    "ECCENTRICITY": 0.0002228,
    "INCLINATION": 97.7625,
    "RA_OF_ASC_NODE": 125.9421,
    "ARG_OF_PERICENTER": 29.8896,
    "MEAN_ANOMALY": 330.245,
    "EPHEMERIS_TYPE": 0,
    "CLASSIFICATION_TYPE": "U",
    "NORAD_CAT_ID": 68504,
    "ELEMENT_SET_NO": 999,
    "REV_AT_EPOCH": 1164,
    "BSTAR": 0.00025679,
    "MEAN_MOTION_DOT": 0.00002555,
    "MEAN_MOTION_DDOT": 0
   }
  },
  {
   "norad": 68496,
   "name": "ICEYE-X73",
   "intl": "2026-067CJ",
   "group": "sar",
   "gcat": {
    "class": "B",
    "category": "IMG-R",
    "owner": "ICEYE",
    "state": "FI"
   },
   "omm": {
    "OBJECT_NAME": "ICEYE-X73",
    "OBJECT_ID": "2026-067CJ",
    "EPOCH": "2026-06-17T04:00:16.833600",
    "MEAN_MOTION": 14.92222398,
    "ECCENTRICITY": 0.0001215,
    "INCLINATION": 97.761,
    "RA_OF_ASC_NODE": 126.4659,
    "ARG_OF_PERICENTER": 21.506,
    "MEAN_ANOMALY": 338.621,
    "EPHEMERIS_TYPE": 0,
    "CLASSIFICATION_TYPE": "U",
    "NORAD_CAT_ID": 68496,
    "ELEMENT_SET_NO": 999,
    "REV_AT_EPOCH": 1172,
    "BSTAR": 0.00025425,
    "MEAN_MOTION_DOT": 0.00002536,
    "MEAN_MOTION_DDOT": 0
   }
  },
  {
   "norad": 68500,
   "name": "ICEYE-X74",
   "intl": "2026-067CN",
   "group": "sar",
   "gcat": {
    "class": "B",
    "category": "IMG-R",
    "owner": "ICEYE",
    "state": "FI"
   },
   "omm": {
    "OBJECT_NAME": "ICEYE-X74",
    "OBJECT_ID": "2026-067CN",
    "EPOCH": "2026-06-17T04:40:43.317120",
    "MEAN_MOTION": 14.91668225,
    "ECCENTRICITY": 0.0003226,
    "INCLINATION": 97.7618,
    "RA_OF_ASC_NODE": 126.4384,
    "ARG_OF_PERICENTER": 49.5151,
    "MEAN_ANOMALY": 310.6348,
    "EPHEMERIS_TYPE": 0,
    "CLASSIFICATION_TYPE": "U",
    "NORAD_CAT_ID": 68500,
    "ELEMENT_SET_NO": 999,
    "REV_AT_EPOCH": 1172,
    "BSTAR": 0.00015661,
    "MEAN_MOTION_DOT": 0.00001519,
    "MEAN_MOTION_DDOT": 0
   }
  },
  {
   "norad": 68497,
   "name": "ICEYE-X75",
   "intl": "2026-067CK",
   "group": "sar",
   "gcat": {
    "class": "B",
    "category": "IMG-R",
    "owner": "ICEYE",
    "state": "FI"
   },
   "omm": {
    "OBJECT_NAME": "ICEYE-X75",
    "OBJECT_ID": "2026-067CK",
    "EPOCH": "2026-06-17T04:02:56.161248",
    "MEAN_MOTION": 14.92120556,
    "ECCENTRICITY": 0.0001068,
    "INCLINATION": 97.7591,
    "RA_OF_ASC_NODE": 126.4466,
    "ARG_OF_PERICENTER": 22.7286,
    "MEAN_ANOMALY": 337.398,
    "EPHEMERIS_TYPE": 0,
    "CLASSIFICATION_TYPE": "U",
    "NORAD_CAT_ID": 68497,
    "ELEMENT_SET_NO": 999,
    "REV_AT_EPOCH": 1172,
    "BSTAR": 0.00011736,
    "MEAN_MOTION_DOT": 0.00001137,
    "MEAN_MOTION_DDOT": 0
   }
  },
  {
   "norad": 68502,
   "name": "ICEYE-X76",
   "intl": "2026-067CQ",
   "group": "sar",
   "gcat": {
    "class": "B",
    "category": "IMG-R",
    "owner": "ICEYE",
    "state": "FI"
   },
   "omm": {
    "OBJECT_NAME": "ICEYE-X76",
    "OBJECT_ID": "2026-067CQ",
    "EPOCH": "2026-06-16T20:31:37.468992",
    "MEAN_MOTION": 14.91698738,
    "ECCENTRICITY": 0.0002946,
    "INCLINATION": 97.7625,
    "RA_OF_ASC_NODE": 126.1192,
    "ARG_OF_PERICENTER": 44.6381,
    "MEAN_ANOMALY": 315.5075,
    "EPHEMERIS_TYPE": 0,
    "CLASSIFICATION_TYPE": "U",
    "NORAD_CAT_ID": 68502,
    "ELEMENT_SET_NO": 999,
    "REV_AT_EPOCH": 1167,
    "BSTAR": 0.000089381,
    "MEAN_MOTION_DOT": 0.00000843,
    "MEAN_MOTION_DDOT": 0
   }
  },
  {
   "norad": 68995,
   "name": "ICEYE-X78",
   "intl": "2026-100R",
   "group": "sar",
   "gcat": {
    "class": "B",
    "category": "IMG-R",
    "owner": "MON/WKL",
    "state": "PL"
   },
   "omm": {
    "OBJECT_NAME": "ICEYE-X78",
    "OBJECT_ID": "2026-100R",
    "EPOCH": "2026-06-16T16:09:10.490112",
    "MEAN_MOTION": 14.91768747,
    "ECCENTRICITY": 0.0003803,
    "INCLINATION": 97.7369,
    "RA_OF_ASC_NODE": 65.1389,
    "ARG_OF_PERICENTER": 112.0256,
    "MEAN_ANOMALY": 248.1367,
    "EPHEMERIS_TYPE": 0,
    "CLASSIFICATION_TYPE": "U",
    "NORAD_CAT_ID": 68995,
    "ELEMENT_SET_NO": 999,
    "REV_AT_EPOCH": 662,
    "BSTAR": 0.00022236,
    "MEAN_MOTION_DOT": 0.00002186,
    "MEAN_MOTION_DDOT": 0
   }
  },
  {
   "norad": 68996,
   "name": "ICEYE-X82",
   "intl": "2026-100S",
   "group": "sar",
   "gcat": {
    "class": "B",
    "category": "IMG-R",
    "owner": "ICEYE",
    "state": "FI"
   },
   "omm": {
    "OBJECT_NAME": "ICEYE-X82",
    "OBJECT_ID": "2026-100S",
    "EPOCH": "2026-06-16T22:55:33.627648",
    "MEAN_MOTION": 14.91302547,
    "ECCENTRICITY": 0.0005168,
    "INCLINATION": 97.7363,
    "RA_OF_ASC_NODE": 65.381,
    "ARG_OF_PERICENTER": 131.8479,
    "MEAN_ANOMALY": 228.3181,
    "EPHEMERIS_TYPE": 0,
    "CLASSIFICATION_TYPE": "U",
    "NORAD_CAT_ID": 68996,
    "ELEMENT_SET_NO": 999,
    "REV_AT_EPOCH": 666,
    "BSTAR": 0.00017735,
    "MEAN_MOTION_DOT": 0.00001712,
    "MEAN_MOTION_DDOT": 0
   }
  },
  {
   "norad": 39216,
   "name": "INSAT-3D",
   "intl": "2013-038B",
   "group": "weather",
   "gcat": {
    "class": "C",
    "category": "MET",
    "owner": "ISRO",
    "state": "IN"
   },
   "omm": {
    "OBJECT_NAME": "INSAT-3D",
    "OBJECT_ID": "2013-038B",
    "EPOCH": "2026-06-16T18:45:45.328032",
    "MEAN_MOTION": 1.00269313,
    "ECCENTRICITY": 0.000056,
    "INCLINATION": 1.9255,
    "RA_OF_ASC_NODE": 82.5442,
    "ARG_OF_PERICENTER": 311.3198,
    "MEAN_ANOMALY": 282.1305,
    "EPHEMERIS_TYPE": 0,
    "CLASSIFICATION_TYPE": "U",
    "NORAD_CAT_ID": 39216,
    "ELEMENT_SET_NO": 999,
    "REV_AT_EPOCH": 4707,
    "BSTAR": 0,
    "MEAN_MOTION_DOT": -0.00000343,
    "MEAN_MOTION_DDOT": 0
   }
  }
 ]
}
